SENTINEL-6              
1 46984U 20086A   24112.00199196 -.00000020  00000+0  17649-3 0  9994
2 46984  66.0429 330.0460 0007757 271.1311  88.8816 12.80930156159502
